[{"OBJECT_NAME":"CINEMA","OBJECT_ID":"2012-048G","EPOCH":"2026-03-09T23:21:38.910528","MEAN_MOTION":15.41758997,"ECCENTRICITY":0.00644529,"INCLINATION":64.645,"RA_OF_ASC_NODE":61.8658,"ARG_OF_PERICENTER":204.5071,"MEAN_ANOMALY":155.2999,"EPHEMERIS_TYPE":0,"CLASSIFICATION_TYPE":"U","NORAD_CAT_ID":38764,"ELEMENT_SET_NO":999,"REV_AT_EPOCH":10191,"BSTAR":0.00076174658,"MEAN_MOTION_DOT":0.0003483,"MEAN_MOTION_DDOT":0},{"OBJECT_NAME":"STARLINK-31948","OBJECT_ID":"2024-106V","EPOCH":"2026-03-09T01:33:20.364192","MEAN_MOTION":15.27573686,"ECCENTRICITY":0.00017313,"INCLINATION":42.9926,"RA_OF_ASC_NODE":332.811,"ARG_OF_PERICENTER":11.3368,"MEAN_ANOMALY":348.7522,"EPHEMERIS_TYPE":0,"CLASSIFICATION_TYPE":"U","NORAD_CAT_ID":59941,"ELEMENT_SET_NO":999,"REV_AT_EPOCH":10046,"BSTAR":4.4005268e-5,"MEAN_MOTION_DOT":9.49e-6,"MEAN_MOTION_DDOT":0}]
